[{"OBJECT_NAME":"FOSSASAT-2E21","OBJECT_ID":"2025-135J","EPOCH":"2026-03-09T20:26:11.535360","MEAN_MOTION":15.19342194,"ECCENTRICITY":0.00047332,"INCLINATION":97.4527,"RA_OF_ASC_NODE":184.3473,"ARG_OF_PERICENTER":156.4187,"MEAN_ANOMALY":203.7265,"EPHEMERIS_TYPE":0,"CLASSIFICATION_TYPE":"U","NORAD_CAT_ID":64536,"ELEMENT_SET_NO":999,"REV_AT_EPOCH":3973,"BSTAR":0.00023900461,"MEAN_MOTION_DOT":4.984e-5,"MEAN_MOTION_DDOT":0},{"OBJECT_NAME":"SPACEMOBILE-006","OBJECT_ID":"2025-309A","EPOCH":"2026-03-09T23:22:27.104448","MEAN_MOTION":15.18016184,"ECCENTRICITY":0.00108499,"INCLINATION":52.9941,"RA_OF_ASC_NODE":65.8805,"ARG_OF_PERICENTER":181.4114,"MEAN_ANOMALY":178.6851,"EPHEMERIS_TYPE":0,"CLASSIFICATION_TYPE":"U","NORAD_CAT_ID":67232,"ELEMENT_SET_NO":999,"REV_AT_EPOCH":1152,"BSTAR":0.00015458852,"MEAN_MOTION_DOT":2.868e-5,"MEAN_MOTION_DDOT":0}]
